COMMENT,ORIGINATOR,NORAD_CAT_ID,OBJECT_NAME,OBJECT_TYPE,CLASSIFICATION_TYPE,INTLDES,EPOCH,EPOCH_MICROSECONDS,MEAN_MOTION,ECCENTRICITY,INCLINATION,RA_OF_ASC_NODE,ARG_OF_PERICENTER,MEAN_ANOMALY,EPHEMERIS_TYPE,ELEMENT_SET_NO,REV_AT_EPOCH,BSTAR,MEAN_MOTION_DOT,MEAN_MOTION_DDOT,FILE,TLE_LINE0,TLE_LINE1,TLE_LINE2,OBJECT_ID,OBJECT_NUMBER,SEMIMAJOR_AXIS,PERIOD,APOGEE,PERIGEE,DECAYED,date
GENERATED VIA SPACETRACK.ORG API,18 SPCS,52181,SPACEBEE-131,PAYLOAD,U,22033AA,2023/4/27 4:16,59232,15.41970251,0.0004248,97.3481,200.4874,343.533,16.5778,0,999,5959,0.0012584,0.00053816,0,3894512,0 SPACEBEE-131,1 52181U 22033AA  23117.17819513  .00053816  00000-0  12584-2 0  9991,2 52181  97.3481 200.4874 0004248 343.5330  16.5778 15.41970251 59592,2022-033AA,52181,6818.432,93.387,443.193,437.4,1,
GENERATED VIA SPACETRACK.ORG API,18 SPCS,52181,SPACEBEE-131,PAYLOAD,U,22033AA,2023/4/28 5:11,356544,15.42096517,0.00042,97.348,201.5333,338.2891,21.8177,0,999,5975,0.001202,0.00051602,0,3895384,0 SPACEBEE-131,1 52181U 22033AA  23118.21646246  .00051602  00000-0  12020-2 0  9994,2 52181  97.3480 201.5333 0004200 338.2891  21.8177 15.42096517 59759,2022-033AA,52181,6818.06,93.379,442.788,437.061,1,
GENERATED VIA SPACETRACK.ORG API,18 SPCS,52181,SPACEBEE-131,PAYLOAD,U,22033AA,2023/4/28 11:25,772032,15.42125332,0.0004251,97.348,201.7951,337.4025,22.7034,0,999,5981,0.0012926,0.0005558,0,3895770,0 SPACEBEE-131,1 52181U 22033AA  23118.47601588  .00055580  00000-0  12926-2 0  9996,2 52181  97.3480 201.7951 0004251 337.4025  22.7034 15.42125332 59810,2022-033AA,52181,6817.975,93.378,442.738,436.942,1,
GENERATED VIA SPACETRACK.ORG API,18 SPCS,52181,SPACEBEE-131,PAYLOAD,U,22033AA,2023/4/29 4:33,480864,15.42210211,0.0004244,97.3481,202.5139,333.0349,27.0677,0,999,5990,0.001275,0.00054973,0,3896294,0 SPACEBEE-131,1 52181U 22033AA  23119.18976251  .00054973  00000-0  12750-2 0  9997,2 52181  97.3481 202.5139 0004244 333.0349  27.0677 15.42210211 59903,2022-033AA,52181,6817.725,93.372,442.483,436.696,1,
GENERATED VIA SPACETRACK.ORG API,18 SPCS,52181,SPACEBEE-131,PAYLOAD,U,22033AA,2023/4/29 10:46,272032,15.42237772,0.0004276,97.3483,202.7758,332.4409,27.6611,0,999,5996,0.0013349,0.00057632,0,3896517,0 SPACEBEE-131,1 52181U 22033AA  23119.44929713  .00057632  00000-0  13349-2 0  9997,2 52181  97.3483 202.7758 0004276 332.4409  27.6611 15.42237772 59960,2022-033AA,52181,6817.643,93.371,442.424,436.593,1,
GENERATED VIA SPACETRACK.ORG API,18 SPCS,52181,SPACEBEE-131,PAYLOAD,U,22033AA,2023/4/30 0:47,68544,15.4231428,0.0004239,97.3483,203.3639,329.3489,30.751,0,999,6003,0.0013384,0.00057933,0,3897086,0 SPACEBEE-131,1 52181U 22033AA  23120.03322996  .00057933  00000-0  13384-2 0  9997,2 52181  97.3483 203.3639 0004239 329.3489  30.7510 15.42314280 60030,2022-033AA,52181,6817.418,93.366,442.173,436.393,1,
GENERATED VIA SPACETRACK.ORG API,18 SPCS,52181,SPACEBEE-131,PAYLOAD,U,22033AA,2023/4/30 3:54,246144,15.42332346,0.0004217,97.3483,203.4946,328.8121,31.2876,0,999,6007,0.0012503,0.0005412,0,3897442,0 SPACEBEE-131,1 52181U 22033AA  23120.16298896  .00054120  00000-0  12503-2 0  9999,2 52181  97.3483 203.4946 0004217 328.8121  31.2876 15.42332346 60073,2022-033AA,52181,6817.365,93.365,442.105,436.355,1,
